[{"OBJECT_NAME":"ONEWEB-0519","OBJECT_ID":"2022-138AA","EPOCH":"2025-11-12T02:34:42.527424","MEAN_MOTION":13.19726183,"ECCENTRICITY":0.00016417,"INCLINATION":87.9227,"RA_OF_ASC_NODE":348.1442,"ARG_OF_PERICENTER":100.9025,"MEAN_ANOMALY":259.2292,"EPHEMERIS_TYPE":0,"CLASSIFICATION_TYPE":"U","NORAD_CAT_ID":54137,"ELEMENT_SET_NO":999,"REV_AT_EPOCH":14820,"BSTAR":2.0673788e-5,"MEAN_MOTION_DOT":2.1e-7,"MEAN_MOTION_DDOT":0},{"OBJECT_NAME":"ONEWEB-0520","OBJECT_ID":"2022-138AB","EPOCH":"2025-11-12T01:35:33.759744","MEAN_MOTION":13.19726367,"ECCENTRICITY":0.0002128,"INCLINATION":87.923,"RA_OF_ASC_NODE":348.1562,"ARG_OF_PERICENTER":99.6751,"MEAN_ANOMALY":260.4622,"EPHEMERIS_TYPE":0,"CLASSIFICATION_TYPE":"U","NORAD_CAT_ID":54138,"ELEMENT_SET_NO":999,"REV_AT_EPOCH":14818,"BSTAR":-2.8148132e-5,"MEAN_MOTION_DOT":2.0e-8,"MEAN_MOTION_DDOT":0},{"OBJECT_NAME":"ONEWEB-0521","OBJECT_ID":"2022-138AC","EPOCH":"2025-11-12T07:50:51.129888","MEAN_MOTION":13.19727238,"ECCENTRICITY":0.00015959,"INCLINATION":87.9228,"RA_OF_ASC_NODE":348.0898,"ARG_OF_PERICENTER":98.1653,"MEAN_ANOMALY":261.9661,"EPHEMERIS_TYPE":0,"CLASSIFICATION_TYPE":"U","NORAD_CAT_ID":54139,"ELEMENT_SET_NO":999,"REV_AT_EPOCH":14816,"BSTAR":-5.48157e-5,"MEAN_MOTION_DOT":-9.0e-8,"MEAN_MOTION_DDOT":0},{"OBJECT_NAME":"ONEWEB-0522","OBJECT_ID":"2022-138AD","EPOCH":"2025-11-12T01:53:44.870784","MEAN_MOTION":13.19726229,"ECCENTRICITY":0.00020267,"INCLINATION":87.9231,"RA_OF_ASC_NODE":348.14,"ARG_OF_PERICENTER":98.7317,"MEAN_ANOMALY":261.4046,"EPHEMERIS_TYPE":0,"CLASSIFICATION_TYPE":"U","NORAD_CAT_ID":54140,"ELEMENT_SET_NO":999,"REV_AT_EPOCH":14817,"BSTAR":-0.00072084413,"MEAN_MOTION_DOT":-2.76e-6,"MEAN_MOTION_DDOT":0},{"OBJECT_NAME":"ONEWEB-0523","OBJECT_ID":"2022-138AE","EPOCH":"2025-11-12T01:30:46.674144","MEAN_MOTION":13.20772199,"ECCENTRICITY":0.0001473,"INCLINATION":87.9177,"RA_OF_ASC_NODE":317.7444,"ARG_OF_PERICENTER":64.1589,"MEAN_ANOMALY":295.9696,"EPHEMERIS_TYPE":0,"CLASSIFICATION_TYPE":"U","NORAD_CAT_ID":54141,"ELEMENT_SET_NO":999,"REV_AT_EPOCH":15064,"BSTAR":0.00017418049,"MEAN_MOTION_DOT":8.4e-7,"MEAN_MOTION_DDOT":0},{"OBJECT_NAME":"ONEWEB-0524","OBJECT_ID":"2022-138AF","EPOCH":"2025-11-11T23:25:47.001216","MEAN_MOTION":13.20770949,"ECCENTRICITY":0.00023708,"INCLINATION":87.9176,"RA_OF_ASC_NODE":317.7633,"ARG_OF_PERICENTER":69.8148,"MEAN_ANOMALY":290.324,"EPHEMERIS_TYPE":0,"CLASSIFICATION_TYPE":"U","NORAD_CAT_ID":54142,"ELEMENT_SET_NO":999,"REV_AT_EPOCH":15063,"BSTAR":0.00010873713,"MEAN_MOTION_DOT":5.7e-7,"MEAN_MOTION_DDOT":0},{"OBJECT_NAME":"ONEWEB-0525","OBJECT_ID":"2022-138AG","EPOCH":"2025-11-12T07:48:34.941024","MEAN_MOTION":13.19727123,"ECCENTRICITY":0.00020982,"INCLINATION":87.9225,"RA_OF_ASC_NODE":348.1127,"ARG_OF_PERICENTER":101.2394,"MEAN_ANOMALY":258.8975,"EPHEMERIS_TYPE":0,"CLASSIFICATION_TYPE":"U","NORAD_CAT_ID":54143,"ELEMENT_SET_NO":999,"REV_AT_EPOCH":14822,"BSTAR":-0.00017794864,"MEAN_MOTION_DOT":-5.8e-7,"MEAN_MOTION_DDOT":0},{"OBJECT_NAME":"ONEWEB-0526","OBJECT_ID":"2022-138AH","EPOCH":"2025-11-12T01:19:39.142560","MEAN_MOTION":13.19725962,"ECCENTRICITY":0.00019732,"INCLINATION":87.9229,"RA_OF_ASC_NODE":348.153,"ARG_OF_PERICENTER":96.4064,"MEAN_ANOMALY":263.7293,"EPHEMERIS_TYPE":0,"CLASSIFICATION_TYPE":"U","NORAD_CAT_ID":54144,"ELEMENT_SET_NO":999,"REV_AT_EPOCH":14816,"BSTAR":3.7634156e-5,"MEAN_MOTION_DOT":2.8e-7,"MEAN_MOTION_DDOT":0},{"OBJECT_NAME":"ONEWEB-0529","OBJECT_ID":"2022-138AJ","EPOCH":"2025-11-12T03:13:22.325088","MEAN_MOTION":13.19726625,"ECCENTRICITY":0.00021647,"INCLINATION":87.9215,"RA_OF_ASC_NODE":348.1697,"ARG_OF_PERICENTER":100.4479,"MEAN_ANOMALY":259.6898,"EPHEMERIS_TYPE":0,"CLASSIFICATION_TYPE":"U","NORAD_CAT_ID":54145,"ELEMENT_SET_NO":999,"REV_AT_EPOCH":14819,"BSTAR":0.00018604726,"MEAN_MOTION_DOT":8.7e-7,"MEAN_MOTION_DDOT":0},{"OBJECT_NAME":"ONEWEB-0531","OBJECT_ID":"2022-138AK","EPOCH":"2025-11-11T10:21:41.143680","MEAN_MOTION":13.20772666,"ECCENTRICITY":0.00017872,"INCLINATION":87.9181,"RA_OF_ASC_NODE":317.8633,"ARG_OF_PERICENTER":62.7876,"MEAN_ANOMALY":297.344,"EPHEMERIS_TYPE":0,"CLASSIFICATION_TYPE":"U","NORAD_CAT_ID":54146,"ELEMENT_SET_NO":999,"REV_AT_EPOCH":15056,"BSTAR":0.00010009771,"MEAN_MOTION_DOT":5.4e-7,"MEAN_MOTION_DDOT":0},{"OBJECT_NAME":"ONEWEB-0535","OBJECT_ID":"2022-138AL","EPOCH":"2025-11-12T02:11:57.338304","MEAN_MOTION":13.19726956,"ECCENTRICITY":0.00015548,"INCLINATION":87.9232,"RA_OF_ASC_NODE":348.1417,"ARG_OF_PERICENTER":89.2039,"MEAN_ANOMALY":270.9272,"EPHEMERIS_TYPE":0,"CLASSIFICATION_TYPE":"U","NORAD_CAT_ID":54147,"ELEMENT_SET_NO":999,"REV_AT_EPOCH":14820,"BSTAR":8.6711532e-5,"MEAN_MOTION_DOT":4.8e-7,"MEAN_MOTION_DDOT":0},{"OBJECT_NAME":"ONEWEB-0536","OBJECT_ID":"2022-138AM","EPOCH":"2025-11-12T06:03:30.502368","MEAN_MOTION":13.20772094,"ECCENTRICITY":0.00020243,"INCLINATION":87.9178,"RA_OF_ASC_NODE":317.7455,"ARG_OF_PERICENTER":59.4734,"MEAN_ANOMALY":300.6599,"EPHEMERIS_TYPE":0,"CLASSIFICATION_TYPE":"U","NORAD_CAT_ID":54148,"ELEMENT_SET_NO":999,"REV_AT_EPOCH":15066,"BSTAR":0.00026681536,"MEAN_MOTION_DOT":1.21e-6,"MEAN_MOTION_DDOT":0},{"OBJECT_NAME":"ONEWEB-0527","OBJECT_ID":"2022-166A","EPOCH":"2025-11-12T07:12:44.015616","MEAN_MOTION":13.218237,"ECCENTRICITY":0.0001955,"INCLINATION":87.918,"RA_OF_ASC_NODE":287.2647,"ARG_OF_PERICENTER":84.125,"MEAN_ANOMALY":276.0107,"EPHEMERIS_TYPE":0,"CLASSIFICATION_TYPE":"U","NORAD_CAT_ID":54642,"ELEMENT_SET_NO":999,"REV_AT_EPOCH":14288,"BSTAR":-0.00011324428,"MEAN_MOTION_DOT":-3.4e-7,"MEAN_MOTION_DDOT":0},{"OBJECT_NAME":"ONEWEB-0528","OBJECT_ID":"2022-166B","EPOCH":"2025-11-12T03:44:14.282304","MEAN_MOTION":13.2182522,"ECCENTRICITY":0.00019586,"INCLINATION":87.9183,"RA_OF_ASC_NODE":287.2973,"ARG_OF_PERICENTER":85.0475,"MEAN_ANOMALY":275.0882,"EPHEMERIS_TYPE":0,"CLASSIFICATION_TYPE":"U","NORAD_CAT_ID":54643,"ELEMENT_SET_NO":999,"REV_AT_EPOCH":14287,"BSTAR":-0.00014645315,"MEAN_MOTION_DOT":-4.7e-7,"MEAN_MOTION_DDOT":0},{"OBJECT_NAME":"ONEWEB-0539","OBJECT_ID":"2022-166C","EPOCH":"2025-11-11T23:11:42.763488","MEAN_MOTION":13.21827689,"ECCENTRICITY":0.00017898,"INCLINATION":87.9176,"RA_OF_ASC_NODE":287.3014,"ARG_OF_PERICENTER":92.2809,"MEAN_ANOMALY":267.853,"EPHEMERIS_TYPE":0,"CLASSIFICATION_TYPE":"U","NORAD_CAT_ID":54644,"ELEMENT_SET_NO":999,"REV_AT_EPOCH":14284,"BSTAR":5.3286708e-5,"MEAN_MOTION_DOT":3.5e-7,"MEAN_MOTION_DDOT":0},{"OBJECT_NAME":"ONEWEB-0540","OBJECT_ID":"2022-166D","EPOCH":"2025-11-11T23:21:23.952096","MEAN_MOTION":13.21826844,"ECCENTRICITY":0.00018173,"INCLINATION":87.9179,"RA_OF_ASC_NODE":287.3381,"ARG_OF_PERICENTER":90.5598,"MEAN_ANOMALY":269.5744,"EPHEMERIS_TYPE":0,"CLASSIFICATION_TYPE":"U","NORAD_CAT_ID":54645,"ELEMENT_SET_NO":999,"REV_AT_EPOCH":14283,"BSTAR":0.00010614712,"MEAN_MOTION_DOT":5.7e-7,"MEAN_MOTION_DDOT":0}]
