ONEWEB-0519             
1 54137U 22138AA  25316.10743666  .00000021  00000+0  20674-4 0  9991
2 54137  87.9227 348.1442 0001641 100.9025 259.2292 13.19726183148209
ONEWEB-0520             
1 54138U 22138AB  25316.06636296  .00000002  00000+0 -28148-4 0  9991
2 54138  87.9230 348.1562 0002128  99.6751 260.4622 13.19726367148180
ONEWEB-0521             
1 54139U 22138AC  25316.32698067 -.00000009  00000+0 -54816-4 0  9994
2 54139  87.9228 348.0898 0001595  98.1653 261.9661 13.19727238148166
ONEWEB-0522             
1 54140U 22138AD  25316.07899156 -.00000276  00000+0 -72084-3 0  9992
2 54140  87.9231 348.1400 0002026  98.7317 261.4046 13.19726229148177
ONEWEB-0523             
1 54141U 22138AE  25316.06304021  .00000084  00000+0  17418-3 0  9999
2 54141  87.9177 317.7444 0001473  64.1589 295.9696 13.20772199150647
ONEWEB-0524             
1 54142U 22138AF  25315.97623844  .00000057  00000+0  10874-3 0  9995
2 54142  87.9176 317.7633 0002370  69.8148 290.3240 13.20770949150631
ONEWEB-0525             
1 54143U 22138AG  25316.32540441 -.00000058  00000+0 -17795-3 0  9999
2 54143  87.9225 348.1127 0002098 101.2394 258.8975 13.19727123148224
ONEWEB-0526             
1 54144U 22138AH  25316.05531415  .00000028  00000+0  37634-4 0  9991
2 54144  87.9229 348.1530 0001973  96.4064 263.7293 13.19725962148167
ONEWEB-0529             
1 54145U 22138AJ  25316.13428617  .00000087  00000+0  18605-3 0  9991
2 54145  87.9215 348.1697 0002164 100.4479 259.6898 13.19726625148191
ONEWEB-0531             
1 54146U 22138AK  25315.43172620  .00000054  00000+0  10010-3 0  9990
2 54146  87.9181 317.8633 0001787  62.7876 297.3440 13.20772666150562
ONEWEB-0535             
1 54147U 22138AL  25316.09163586  .00000048  00000+0  86712-4 0  9991
2 54147  87.9232 348.1417 0001554  89.2039 270.9272 13.19726956148201
ONEWEB-0536             
1 54148U 22138AM  25316.25243637  .00000121  00000+0  26682-3 0  9997
2 54148  87.9178 317.7455 0002024  59.4734 300.6599 13.20772094150661
ONEWEB-0527             
1 54642U 22166A   25316.30050944 -.00000034  00000+0 -11324-3 0  9992
2 54642  87.9180 287.2647 0001955  84.1250 276.0107 13.21823700142885
ONEWEB-0528             
1 54643U 22166B   25316.15572086 -.00000047  00000+0 -14645-3 0  9995
2 54643  87.9183 287.2973 0001958  85.0475 275.0882 13.21825220142870
ONEWEB-0539             
1 54644U 22166C   25315.96646717  .00000035  00000+0  53287-4 0  9998
2 54644  87.9176 287.3014 0001789  92.2809 267.8530 13.21827689142840
ONEWEB-0540             
1 54645U 22166D   25315.97319389  .00000057  00000+0  10615-3 0  9993
2 54645  87.9179 287.3381 0001817  90.5598 269.5744 13.21826844142836
